{
  "type": "FeatureCollection",
  "features": [
    {
      "type": "Feature",
      "properties": {
        "norad_id": 28054,
        "name": "DMSP 5D-3 F16 (USA 172)",
        "group": "weather",
        "lat": 54.79991362145092,
        "lon": -18.31798176339435,
        "alt_km": 837.0240643922389,
        "timestamp": "2025-12-03T06:58:42.883739+00:00",
        "meta_object_name": "DMSP 5D-3 F16 (USA 172)",
        "meta_object_id": "2003-048A",
        "meta_epoch": "2025-12-02T19:38:50.160768",
        "meta_mean_motion": 14.14418432,
        "meta_eccentricity": 0.0006913,
        "meta_inclination": 99.0053,
        "meta_ra_of_asc_node": 354.1973,
        "meta_arg_of_pericenter": 351.0213,
        "meta_mean_anomaly": 182.0475,
        "meta_ephemeris_type": 0,
        "meta_classification_type": "U",
        "meta_norad_cat_id": 28054,
        "meta_element_set_no": 999,
        "meta_rev_at_epoch": 14172,
        "meta_bstar": 0.00012691,
        "meta_mean_motion_dot": 1.97e-06,
        "meta_mean_motion_ddot": 0,
        "tle_line1": "1 28054U 03048A   25336.81863612  .00000197  00000+0  12691-3 0  9996",
        "tle_line2": "2 28054  99.0053 354.1973 0006913 351.0213 182.0475 14.14418432141727"
      },
      "geometry": {
        "type": "Point",
        "coordinates": [
          -18.31798176339435,
          54.79991362145092
        ]
      }
    },
    {
      "type": "Feature",
      "properties": {
        "norad_id": 28912,
        "name": "METEOSAT-9 (MSG-2)",
        "group": "weather",
        "lat": 2.0410674374422664,
        "lon": -137.20995584278023,
        "alt_km": 35769.96625418912,
        "timestamp": "2025-12-03T06:58:42.883789+00:00",
        "meta_object_name": "METEOSAT-9 (MSG-2)",
        "meta_object_id": "2005-049B",
        "meta_epoch": "2025-12-01T20:52:41.183904",
        "meta_mean_motion": 1.0027085,
        "meta_eccentricity": 0.00039633,
        "meta_inclination": 8.9132,
        "meta_ra_of_asc_node": 56.0736,
        "meta_arg_of_pericenter": 184.5981,
        "meta_mean_anomaly": 189.0848,
        "meta_ephemeris_type": 0,
        "meta_classification_type": "U",
        "meta_norad_cat_id": 28912,
        "meta_element_set_no": 999,
        "meta_rev_at_epoch": 502,
        "meta_bstar": 0,
        "meta_mean_motion_dot": 1.42e-06,
        "meta_mean_motion_ddot": 0,
        "tle_line1": "1 28912U 05049B   25335.86992111  .00000142  00000+0  00000+0 0  9990",
        "tle_line2": "2 28912   8.9132  56.0736 0003963 184.5981 189.0848  1.00270850  5029"
      },
      "geometry": {
        "type": "Point",
        "coordinates": [
          -137.20995584278023,
          2.0410674374422664
        ]
      }
    },
    {
      "type": "Feature",
      "properties": {
        "norad_id": 29522,
        "name": "DMSP 5D-3 F17 (USA 191)",
        "group": "weather",
        "lat": -20.162624344681156,
        "lon": -13.885590921034085,
        "alt_km": 847.1680669498464,
        "timestamp": "2025-12-03T06:58:42.883807+00:00",
        "meta_object_name": "DMSP 5D-3 F17 (USA 191)",
        "meta_object_id": "2006-050A",
        "meta_epoch": "2025-12-02T20:53:30.546816",
        "meta_mean_motion": 14.14912601,
        "meta_eccentricity": 0.0009149,
        "meta_inclination": 98.7394,
        "meta_ra_of_asc_node": 342.465,
        "meta_arg_of_pericenter": 255.7515,
        "meta_mean_anomaly": 104.2643,
        "meta_ephemeris_type": 0,
        "meta_classification_type": "U",
        "meta_norad_cat_id": 29522,
        "meta_element_set_no": 999,
        "meta_rev_at_epoch": 98465,
        "meta_bstar": 0.00014864,
        "meta_mean_motion_dot": 2.44e-06,
        "meta_mean_motion_ddot": 0,
        "tle_line1": "1 29522U 06050A   25336.87049244  .00000244  00000+0  14864-3 0  9993",
        "tle_line2": "2 29522  98.7394 342.4650 0009149 255.7515 104.2643 14.14912601984650"
      },
      "geometry": {
        "type": "Point",
        "coordinates": [
          -13.885590921034085,
          -20.162624344681156
        ]
      }
    },
    {
      "type": "Feature",
      "properties": {
        "norad_id": 32958,
        "name": "FENGYUN 3A",
        "group": "weather",
        "lat": -74.80652987190669,
        "lon": 62.840944397518044,
        "alt_km": 833.4761817637755,
        "timestamp": "2025-12-03T06:58:42.883821+00:00",
        "meta_object_name": "FENGYUN 3A",
        "meta_object_id": "2008-026A",
        "meta_epoch": "2025-12-02T19:37:07.248000",
        "meta_mean_motion": 14.19509322,
        "meta_eccentricity": 0.0008381,
        "meta_inclination": 98.6683,
        "meta_ra_of_asc_node": 276.5539,
        "meta_arg_of_pericenter": 340.9406,
        "meta_mean_anomaly": 19.1455,
        "meta_ephemeris_type": 0,
        "meta_classification_type": "U",
        "meta_norad_cat_id": 32958,
        "meta_element_set_no": 999,
        "meta_rev_at_epoch": 90754,
        "meta_bstar": 9.6459e-05,
        "meta_mean_motion_dot": 1.6e-06,
        "meta_mean_motion_ddot": 0,
        "tle_line1": "1 32958U 08026A   25336.81744500  .00000160  00000+0  96459-4 0  9994",
        "tle_line2": "2 32958  98.6683 276.5539 0008381 340.9406  19.1455 14.19509322907548"
      },
      "geometry": {
        "type": "Point",
        "coordinates": [
          62.840944397518044,
          -74.80652987190669
        ]
      }
    },
    {
      "type": "Feature",
      "properties": {
        "norad_id": 35491,
        "name": "GOES 14",
        "group": "weather",
        "lat": -0.3148509625994601,
        "lon": 68.69052577602942,
        "alt_km": 35802.97799565598,
        "timestamp": "2025-12-03T06:58:42.883837+00:00",
        "meta_object_name": "GOES 14",
        "meta_object_id": "2009-033A",
        "meta_epoch": "2025-12-02T14:58:53.520384",
        "meta_mean_motion": 1.00272644,
        "meta_eccentricity": 0.0004147,
        "meta_inclination": 1.1708,
        "meta_ra_of_asc_node": 85.5255,
        "meta_arg_of_pericenter": 149.7317,
        "meta_mean_anomaly": 312.8509,
        "meta_ephemeris_type": 0,
        "meta_classification_type": "U",
        "meta_norad_cat_id": 35491,
        "meta_element_set_no": 999,
        "meta_rev_at_epoch": 462,
        "meta_bstar": 0,
        "meta_mean_motion_dot": -4.8e-07,
        "meta_mean_motion_ddot": 0,
        "tle_line1": "1 35491U 09033A   25336.62423056 -.00000048  00000+0  00000+0 0  9995",
        "tle_line2": "2 35491   1.1708  85.5255 0004147 149.7317 312.8509  1.00272644  4625"
      },
      "geometry": {
        "type": "Point",
        "coordinates": [
          68.69052577602942,
          -0.3148509625994601
        ]
      }
    },
    {
      "type": "Feature",
      "properties": {
        "norad_id": 35951,
        "name": "DMSP 5D-3 F18 (USA 210)",
        "group": "weather",
        "lat": -31.817048021543652,
        "lon": 128.17153143480135,
        "alt_km": 854.1326204343632,
        "timestamp": "2025-12-03T06:58:42.883850+00:00",
        "meta_object_name": "DMSP 5D-3 F18 (USA 210)",
        "meta_object_id": "2009-057A",
        "meta_epoch": "2025-12-02T19:47:45.604032",
        "meta_mean_motion": 14.14759881,
        "meta_eccentricity": 0.0012108,
        "meta_inclination": 98.8823,
        "meta_ra_of_asc_node": 313.2758,
        "meta_arg_of_pericenter": 88.5083,
        "meta_mean_anomaly": 271.7476,
        "meta_ephemeris_type": 0,
        "meta_classification_type": "U",
        "meta_norad_cat_id": 35951,
        "meta_element_set_no": 999,
        "meta_rev_at_epoch": 83182,
        "meta_bstar": 0.00020206,
        "meta_mean_motion_dot": 3.45e-06,
        "meta_mean_motion_ddot": 0,
        "tle_line1": "1 35951U 09057A   25336.82483338  .00000345  00000+0  20206-3 0  9996",
        "tle_line2": "2 35951  98.8823 313.2758 0012108  88.5083 271.7476 14.14759881831820"
      },
      "geometry": {
        "type": "Point",
        "coordinates": [
          128.17153143480135,
          -31.817048021543652
        ]
      }
    },
    {
      "type": "Feature",
      "properties": {
        "norad_id": 36411,
        "name": "EWS-G2 (GOES 15)",
        "group": "weather",
        "lat": 0.33859553187552904,
        "lon": -121.4789437943375,
        "alt_km": 35763.08584813789,
        "timestamp": "2025-12-03T06:58:42.883864+00:00",
        "meta_object_name": "EWS-G2 (GOES 15)",
        "meta_object_id": "2010-008A",
        "meta_epoch": "2025-12-02T20:14:09.214080",
        "meta_mean_motion": 1.00267606,
        "meta_eccentricity": 0.0005944,
        "meta_inclination": 0.7873,
        "meta_ra_of_asc_node": 86.0568,
        "meta_arg_of_pericenter": 169.4863,
        "meta_mean_anomaly": 181.4455,
        "meta_ephemeris_type": 0,
        "meta_classification_type": "U",
        "meta_norad_cat_id": 36411,
        "meta_element_set_no": 999,
        "meta_rev_at_epoch": 5766,
        "meta_bstar": 0,
        "meta_mean_motion_dot": 5.7e-07,
        "meta_mean_motion_ddot": 0,
        "tle_line1": "1 36411U 10008A   25336.84316220  .00000057  00000+0  00000+0 0  9999",
        "tle_line2": "2 36411   0.7873  86.0568 0005944 169.4863 181.4455  1.00267606 57664"
      },
      "geometry": {
        "type": "Point",
        "coordinates": [
          -121.4789437943375,
          0.33859553187552904
        ]
      }
    }
  ]
}